start=new Date('2023-03-06T00:00:00.000Z').valueOf();
sats=[{"REV_AT_EPOCH":"130","ELEMENT_SET_NO":"999","TLE_LINE2":"2 55280  69.9996 301.3669 0003606 270.1042 347.1128 15.62882329  1305","ARG_OF_PERICENTER":"270.1042","OBJECT_TYPE":"PAYLOAD","TIME_SYSTEM":"UTC","BSTAR":"-0.01284400000000","MEAN_MOTION_DDOT":"0.0000000000000","CLASSIFICATION_TYPE":"U","SITE":"AFWTR","MEAN_ANOMALY":"347.1128","EPHEMERIS_TYPE":"0","PERIOD":"92.137","RCS_SIZE":"LARGE","OBJECT_NAME":"STARLINK-5331","COUNTRY_CODE":"US","MEAN_MOTION":"15.62882329","LAUNCH_DATE":"2023-01-19","RA_OF_ASC_NODE":"301.3669","CENTER_NAME":"EARTH","NORAD_CAT_ID":"55280","GP_ID":"227585611","INCLINATION":"69.9996","PERIAPSIS":"376.901","TLE_LINE1":"1 55280U 23010M   23064.91667824 -.01045445  00000-0 -12844-1 0  9999","ECCENTRICITY":"0.00036060","OBJECT_ID":"2023-010M","FILE":"3852256","APOAPSIS":"381.775","EPOCH":"2023-03-05T22:00:00.999936","REF_FRAME":"TEME","MEAN_MOTION_DOT":"-0.01045445","DECAY_DATE":null,"SEMIMAJOR_AXIS":"6757.473","MEAN_ELEMENT_THEORY":"SGP4"},{"MEAN_MOTION_DDOT":"0.0000000000000","SITE":"AFWTR","CLASSIFICATION_TYPE":"U","MEAN_ANOMALY":"343.1468","PERIOD":"92.144","EPHEMERIS_TYPE":"0","RCS_SIZE":"LARGE","REV_AT_EPOCH":"130","TIME_SYSTEM":"UTC","TLE_LINE2":"2 55281  69.9994 301.3707 0003660 271.1199 343.1468 15.62776304  1309","OBJECT_TYPE":"PAYLOAD","ARG_OF_PERICENTER":"271.1199","ELEMENT_SET_NO":"999","BSTAR":"-0.01288000000000","ECCENTRICITY":"0.00036600","TLE_LINE1":"1 55281U 23010N   23064.91667824 -.01044184  00000-0 -12880-1 0  9999","FILE":"3852256","OBJECT_ID":"2023-010N","EPOCH":"2023-03-05T22:00:00.999936","REF_FRAME":"TEME","APOAPSIS":"382.117","MEAN_MOTION_DOT":"-0.01044184","DECAY_DATE":null,"SEMIMAJOR_AXIS":"6757.779","MEAN_ELEMENT_THEORY":"SGP4","OBJECT_NAME":"STARLINK-5298","LAUNCH_DATE":"2023-01-19","COUNTRY_CODE":"US","MEAN_MOTION":"15.62776304","RA_OF_ASC_NODE":"301.3707","CENTER_NAME":"EARTH","NORAD_CAT_ID":"55281","INCLINATION":"69.9994","GP_ID":"227585371","PERIAPSIS":"377.170"},{"EPOCH":"2023-03-05T22:00:00.999936","REF_FRAME":"TEME","APOAPSIS":"381.623","FILE":"3852256","OBJECT_ID":"2023-010P","ECCENTRICITY":"0.00036320","TLE_LINE1":"1 55282U 23010P   23064.91667824 -.01043372  00000-0 -12786-1 0  9993","MEAN_ELEMENT_THEORY":"SGP4","SEMIMAJOR_AXIS":"6757.304","DECAY_DATE":null,"MEAN_MOTION_DOT":"-0.01043372","RA_OF_ASC_NODE":"301.3639","LAUNCH_DATE":"2023-01-19","COUNTRY_CODE":"US","MEAN_MOTION":"15.62940990","OBJECT_NAME":"STARLINK-5330","PERIAPSIS":"376.715","INCLINATION":"69.9998","GP_ID":"227584616","NORAD_CAT_ID":"55282","CENTER_NAME":"EARTH","SITE":"AFWTR","CLASSIFICATION_TYPE":"U","MEAN_MOTION_DDOT":"0.0000000000000","RCS_SIZE":"LARGE","PERIOD":"92.134","EPHEMERIS_TYPE":"0","MEAN_ANOMALY":"349.5766","TIME_SYSTEM":"UTC","TLE_LINE2":"2 55282  69.9998 301.3639 0003632 270.1027 349.5766 15.62940990  1301","OBJECT_TYPE":"PAYLOAD","ARG_OF_PERICENTER":"270.1027","ELEMENT_SET_NO":"999","REV_AT_EPOCH":"130","BSTAR":"-0.01278600000000"},{"EPHEMERIS_TYPE":"0","PERIOD":"92.142","MEAN_ANOMALY":"345.2256","RCS_SIZE":"LARGE","MEAN_MOTION_DDOT":"0.0000000000000","SITE":"AFWTR","CLASSIFICATION_TYPE":"U","BSTAR":"-0.01278700000000","ARG_OF_PERICENTER":"270.0299","TLE_LINE2":"2 55283  69.9996 301.3696 0003586 270.0299 345.2256 15.62806898  1306","OBJECT_TYPE":"PAYLOAD","TIME_SYSTEM":"UTC","ELEMENT_SET_NO":"999","REV_AT_EPOCH":"130","MEAN_MOTION_DOT":"-0.01038487","SEMIMAJOR_AXIS":"6757.690","MEAN_ELEMENT_THEORY":"SGP4","DECAY_DATE":null,"TLE_LINE1":"1 55283U 23010Q   23064.91667824 -.01038487  00000-0 -12787-1 0  9996","ECCENTRICITY":"0.00035860","EPOCH":"2023-03-05T22:00:00.999936","REF_FRAME":"TEME","APOAPSIS":"381.979","FILE":"3852256","OBJECT_ID":"2023-010Q","NORAD_CAT_ID":"55283","CENTER_NAME":"EARTH","PERIAPSIS":"377.132","INCLINATION":"69.9996","GP_ID":"227584866","OBJECT_NAME":"STARLINK-5317","RA_OF_ASC_NODE":"301.3696","LAUNCH_DATE":"2023-01-19","COUNTRY_CODE":"US","MEAN_MOTION":"15.62806898"},{"BSTAR":"-0.01283200000000","REV_AT_EPOCH":"130","TLE_LINE2":"2 55284  70.0000 301.3623 0003644 270.9434 350.1836 15.62968214  1301","TIME_SYSTEM":"UTC","OBJECT_TYPE":"PAYLOAD","ARG_OF_PERICENTER":"270.9434","ELEMENT_SET_NO":"999","MEAN_ANOMALY":"350.1836","EPHEMERIS_TYPE":"0","PERIOD":"92.132","RCS_SIZE":"LARGE","MEAN_MOTION_DDOT":"0.0000000000000","SITE":"AFWTR","CLASSIFICATION_TYPE":"U","CENTER_NAME":"EARTH","NORAD_CAT_ID":"55284","INCLINATION":"70.0000","GP_ID":"227585134","PERIAPSIS":"376.628","OBJECT_NAME":"STARLINK-5337","LAUNCH_DATE":"2023-01-19","COUNTRY_CODE":"US","MEAN_MOTION":"15.62968214","RA_OF_ASC_NODE":"301.3623","MEAN_MOTION_DOT":"-0.01047761","DECAY_DATE":null,"MEAN_ELEMENT_THEORY":"SGP4","SEMIMAJOR_AXIS":"6757.225","ECCENTRICITY":"0.00036440","TLE_LINE1":"1 55284U 23010R   23064.91667824 -.01047761  00000-0 -12832-1 0  9993","FILE":"3852256","OBJECT_ID":"2023-010R","EPOCH":"2023-03-05T22:00:00.999936","REF_FRAME":"TEME","APOAPSIS":"381.553"},{"REV_AT_EPOCH":"882","TLE_LINE2":"2 55285  69.9999 301.2056 0003986 263.9642  96.1099 15.69956507  8828","TIME_SYSTEM":"UTC","OBJECT_TYPE":"PAYLOAD","ARG_OF_PERICENTER":"263.9642","ELEMENT_SET_NO":"999","BSTAR":"0.00015593000000","MEAN_MOTION_DDOT":"0.0000000000000","SITE":"AFWTR","CLASSIFICATION_TYPE":"U","MEAN_ANOMALY":"96.1099","EPHEMERIS_TYPE":"0","PERIOD":"91.722","RCS_SIZE":"LARGE","OBJECT_NAME":"STARLINK-5332","LAUNCH_DATE":"2023-01-19","COUNTRY_CODE":"US","MEAN_MOTION":"15.69956507","RA_OF_ASC_NODE":"301.2056","CENTER_NAME":"EARTH","NORAD_CAT_ID":"55285","INCLINATION":"69.9999","GP_ID":"227585849","PERIAPSIS":"356.338","TLE_LINE1":"1 55285U 23010S   23064.90653440  .00018605  00000-0  15593-3 0  9993","ECCENTRICITY":"0.00039860","FILE":"3852256","OBJECT_ID":"2023-010S","EPOCH":"2023-03-05T21:45:24.572160","REF_FRAME":"TEME","APOAPSIS":"361.709","MEAN_MOTION_DOT":"0.00018605","DECAY_DATE":null,"MEAN_ELEMENT_THEORY":"SGP4","SEMIMAJOR_AXIS":"6737.158"},{"PERIAPSIS":"356.227","INCLINATION":"70.0013","GP_ID":"227584139","NORAD_CAT_ID":"55286","CENTER_NAME":"EARTH","RA_OF_ASC_NODE":"301.8242","LAUNCH_DATE":"2023-01-19","COUNTRY_CODE":"US","MEAN_MOTION":"15.69941061","OBJECT_NAME":"STARLINK-5338","SEMIMAJOR_AXIS":"6737.203","MEAN_ELEMENT_THEORY":"SGP4","DECAY_DATE":null,"MEAN_MOTION_DOT":"0.00010579","EPOCH":"2023-03-05T17:40:25.296096","REF_FRAME":"TEME","APOAPSIS":"361.909","FILE":"3852256","OBJECT_ID":"2023-010T","ECCENTRICITY":"0.00042170","TLE_LINE1":"1 55286U 23010T   23064.73640389  .00010579  00000-0  89564-4 0  9995","BSTAR":"0.00008956400000","OBJECT_TYPE":"PAYLOAD","TLE_LINE2":"2 55286  70.0013 301.8242 0004217 274.4486  85.6228 15.69941061  7918","ARG_OF_PERICENTER":"274.4486","TIME_SYSTEM":"UTC","ELEMENT_SET_NO":"999","REV_AT_EPOCH":"791","RCS_SIZE":"LARGE","PERIOD":"91.723","EPHEMERIS_TYPE":"0","MEAN_ANOMALY":"85.6228","SITE":"AFWTR","CLASSIFICATION_TYPE":"U","MEAN_MOTION_DDOT":"0.0000000000000"},{"BSTAR":"0.00089455000000","ELEMENT_SET_NO":"999","TLE_LINE2":"2 55287  69.9986 301.2113 0003839 237.2589 122.8239 15.73501185  7949","TIME_SYSTEM":"UTC","OBJECT_TYPE":"PAYLOAD","ARG_OF_PERICENTER":"237.2589","REV_AT_EPOCH":"794","RCS_SIZE":"LARGE","PERIOD":"91.516","EPHEMERIS_TYPE":"0","MEAN_ANOMALY":"122.8239","CLASSIFICATION_TYPE":"U","SITE":"AFWTR","MEAN_MOTION_DDOT":"0.0000000000000","PERIAPSIS":"346.319","GP_ID":"227584389","INCLINATION":"69.9986","NORAD_CAT_ID":"55287","CENTER_NAME":"EARTH","RA_OF_ASC_NODE":"301.2113","MEAN_MOTION":"15.73501185","COUNTRY_CODE":"US","LAUNCH_DATE":"2023-01-19","OBJECT_NAME":"STARLINK-5341","MEAN_ELEMENT_THEORY":"SGP4","SEMIMAJOR_AXIS":"6727.037","DECAY_DATE":null,"MEAN_MOTION_DOT":"0.00126686","APOAPSIS":"351.484","EPOCH":"2023-03-05T21:47:25.813824","REF_FRAME":"TEME","OBJECT_ID":"2023-010U","FILE":"3852256","ECCENTRICITY":"0.00038390","TLE_LINE1":"1 55287U 23010U   23064.90793766  .00126686  00000-0  89455-3 0  9998"},{"REV_AT_EPOCH":"794","ELEMENT_SET_NO":"999","TLE_LINE2":"2 55288  70.0003 301.2833 0003704 270.8132  89.2639 15.69940523  7948","TIME_SYSTEM":"UTC","OBJECT_TYPE":"PAYLOAD","ARG_OF_PERICENTER":"270.8132","BSTAR":"0.00005864300000","CLASSIFICATION_TYPE":"U","SITE":"AFWTR","MEAN_MOTION_DDOT":"0.0000000000000","RCS_SIZE":"LARGE","MEAN_ANOMALY":"89.2639","PERIOD":"91.723","EPHEMERIS_TYPE":"0","MEAN_MOTION":"15.69940523","COUNTRY_CODE":"US","LAUNCH_DATE":"2023-01-19","RA_OF_ASC_NODE":"301.2833","OBJECT_NAME":"STARLINK-5311","GP_ID":"227585612","INCLINATION":"70.0003","PERIAPSIS":"356.574","CENTER_NAME":"EARTH","NORAD_CAT_ID":"55288","OBJECT_ID":"2023-010V","FILE":"3852256","APOAPSIS":"361.565","REF_FRAME":"TEME","EPOCH":"2023-03-05T22:14:27.445056","TLE_LINE1":"1 55288U 23010V   23064.92670654  .00006849  00000-0  58643-4 0  9995","ECCENTRICITY":"0.00037040","DECAY_DATE":null,"SEMIMAJOR_AXIS":"6737.204","MEAN_ELEMENT_THEORY":"SGP4","MEAN_MOTION_DOT":"0.00006849"},{"REV_AT_EPOCH":"794","OBJECT_TYPE":"PAYLOAD","TLE_LINE2":"2 55289  70.0000 301.2844 0003878 271.2506  88.8245 15.69946813  7946","TIME_SYSTEM":"UTC","ARG_OF_PERICENTER":"271.2506","ELEMENT_SET_NO":"999","BSTAR":"0.00011337000000","SITE":"AFWTR","CLASSIFICATION_TYPE":"U","MEAN_MOTION_DDOT":"0.0000000000000","RCS_SIZE":"LARGE","MEAN_ANOMALY":"88.8245","EPHEMERIS_TYPE":"0","PERIOD":"91.723","LAUNCH_DATE":"2023-01-19","MEAN_MOTION":"15.69946813","COUNTRY_CODE":"US","RA_OF_ASC_NODE":"301.2844","OBJECT_NAME":"STARLINK-5320","INCLINATION":"70.0000","GP_ID":"227585372","PERIAPSIS":"356.438","CENTER_NAME":"EARTH","NORAD_CAT_ID":"55289","FILE":"3852256","OBJECT_ID":"2023-010W","EPOCH":"2023-03-05T22:15:13.059072","REF_FRAME":"TEME","APOAPSIS":"361.664","TLE_LINE1":"1 55289U 23010W   23064.92723448  .00013455  00000-0  11337-3 0  9995","ECCENTRICITY":"0.00038780","DECAY_DATE":null,"SEMIMAJOR_AXIS":"6737.186","MEAN_ELEMENT_THEORY":"SGP4","MEAN_MOTION_DOT":"0.00013455"}];
